NORAD_CAT_ID,OBJECT_NAME,OBJECT_TYPE,EPOCH,MEAN_MOTION,ECCENTRICITY,INCLINATION,RA_OF_ASC_NODE,ARG_OF_PERICENTER,MEAN_ANOMALY,BSTAR,MEAN_MOTION_DOT,MEAN_MOTION_DDOT,TLE_LINE0,TLE_LINE1,TLE_LINE2,SEMIMAJOR_AXIS,PERIOD,APOGEE,PERIGEE,DECAYED
53635.0,STARLINK-4587,PAYLOAD,2023-08-18 00:37:54,15.0884838,7.76e-05,53.2159,99.9305,84.649,275.459,7.8072e-05,9.55e-06,0.0,0 STARLINK-4587,1 53635U 22104AZ  23230.02632372  .00000955  00000-0  78072-4 0  9993,2 53635  53.2159  99.9305 0000776  84.6490 275.4590 15.08848380 54102,6917.855,95.437,540.257,539.183,0.0
53635.0,STARLINK-4587,PAYLOAD,2023-08-18 18:07:09,15.08837018,0.0001285,53.2151,96.6612,97.4799,262.6339,6.2445e-05,7.06e-06,0.0,0 STARLINK-4587,1 53635U 22104AZ  23230.75497053  .00000706  00000-0  62445-4 0  9999,2 53635  53.2151  96.6612 0001285  97.4799 262.6339 15.08837018 54216,6917.89,95.438,540.643,538.866,0.0
53635.0,STARLINK-4587,PAYLOAD,2023-08-19 00:28:42,15.088282,0.0001299,53.2155,95.472,82.9453,277.1687,-0.0001065,-1.982e-05,0.0,0 STARLINK-4587,1 53635U 22104AZ  23231.01993540 -.00001982  00000-0 -10650-3 0  9990,2 53635  53.2155  95.4720 0001299  82.9453 277.1687 15.08828200 54252,6917.916,95.438,540.68,538.883,0.0
53635.0,STARLINK-4587,PAYLOAD,2023-08-19 17:57:58,15.08808095,0.0001501,53.215,92.2031,73.3991,286.7166,-0.00034634,-5.791e-05,0.0,0 STARLINK-4587,1 53635U 22104AZ  23231.74859313 -.00005791  00000-0 -34634-3 0  9999,2 53635  53.2150  92.2031 0001501  73.3991 286.7166 15.08808095 54364,6917.978,95.44,540.881,538.805,0.0
53635.0,STARLINK-4587,PAYLOAD,2023-08-20 00:19:32,15.08796608,0.0001789,53.2143,91.0159,81.9471,278.1724,0.0005692,8.772e-05,0.0,0 STARLINK-4587,1 53635U 22104AZ  23232.01357004  .00008772  00000-0  56920-3 0  9992,2 53635  53.2143  91.0159 0001789  81.9471 278.1724 15.08796608 54406,6918.013,95.44,541.116,538.64,0.0
53635.0,STARLINK-4587,PAYLOAD,2023-08-20 17:48:45,15.08837268,0.0001096,53.2161,87.74,90.476,269.6358,0.00038479,5.841e-05,0.0,0 STARLINK-4587,1 53635U 22104AZ  23232.74219492  .00005841  00000-0  38479-3 0  9993,2 53635  53.2161  87.7400 0001096  90.4760 269.6358 15.08837268 54512,6917.889,95.438,540.512,538.996,0.0
53635.0,STARLINK-4587,PAYLOAD,2023-08-21 01:45:41,15.08860256,0.0001169,53.2159,86.253,92.9699,267.1427,0.00099275,0.00015556,0.0,0 STARLINK-4587,1 53635U 22104AZ  23233.07339159  .00015556  00000-0  99275-3 0  9998,2 53635  53.2159  86.2530 0001169  92.9699 267.1427 15.08860256 54564,6917.818,95.436,540.492,538.875,0.0
53635.0,STARLINK-4587,PAYLOAD,2023-08-21 19:14:54,15.08862227,0.0001281,53.2161,82.9818,94.9685,265.1453,0.00050807,7.812e-05,0.0,0 STARLINK-4587,1 53635U 22104AZ  23233.80202451  .00007812  00000-0  50807-3 0  9997,2 53635  53.2161  82.9818 0001281  94.9685 265.1453 15.08862227 54670,6917.812,95.436,540.564,538.791,0.0
53635.0,STARLINK-4587,PAYLOAD,2023-08-22 14:19:32,15.08852659,0.0001345,53.2161,79.4151,73.1315,286.9824,5.1995e-07,-2.8e-06,0.0,0 STARLINK-4587,1 53635U 22104AZ  23234.59689865 -.00000280  00000-0  51995-6 0  9997,2 53635  53.2161  79.4151 0001345  73.1315 286.9824 15.08852659 54795,6917.842,95.437,540.637,538.776,0.0
53635.0,STARLINK-4587,PAYLOAD,2023-08-23 12:34:55,15.08843881,0.0001282,53.2156,75.2514,84.09,276.0238,-7.4203e-05,-1.469e-05,0.0,0 STARLINK-4587,1 53635U 22104AZ  23235.52425831 -.00001469  00000-0 -74203-4 0  9998,2 53635  53.2156  75.2514 0001282  84.0900 276.0238 15.08843881 54939,6917.869,95.437,540.62,538.847,0.0
53635.0,STARLINK-4587,PAYLOAD,2023-08-24 12:25:43,15.08837937,0.0001347,53.2172,70.7896,92.2037,267.911,4.2238e-05,3.84e-06,0.0,0 STARLINK-4587,1 53635U 22104AZ  23236.51786202  .00000384  00000-0  42238-4 0  9996,2 53635  53.2172  70.7896 0001347  92.2037 267.9110 15.08837937 55084,6917.887,95.438,540.684,538.82,0.0
53635.0,STARLINK-4587,PAYLOAD,2023-08-24 23:33:24,15.08843031,0.0001846,53.2178,68.7088,80.1317,279.9883,8.2779e-05,1.03e-05,0.0,0 STARLINK-4587,1 53635U 22104AZ  23236.98153885  .00001030  00000-0  82779-4 0  9995,2 53635  53.2178  68.7088 0001846  80.1317 279.9883 15.08843031 55151,6917.871,95.437,541.013,538.459,0.0
53635.0,STARLINK-4587,PAYLOAD,2023-08-25 18:38:03,15.08836136,0.0001535,53.2178,65.1404,86.6099,273.5069,2.2113e-05,6.4e-07,0.0,0 STARLINK-4587,1 53635U 22104AZ  23237.77642431  .00000064  00000-0  22113-4 0  9995,2 53635  53.2178  65.1404 0001535  86.6099 273.5069 15.08836136 55274,6917.892,95.438,540.819,538.695,0.0
53635.0,STARLINK-4587,PAYLOAD,2023-08-25 21:48:48,15.08844343,0.0001354,53.2176,64.544,88.8307,271.284,6.2625e-05,7.09e-06,0.0,0 STARLINK-4587,1 53635U 22104AZ  23237.90889740  .00000709  00000-0  62625-4 0  9994,2 53635  53.2176  64.5440 0001354  88.8307 271.2840 15.08844343 56317,6917.867,95.437,540.669,538.795,0.0
53635.0,STARLINK-4587,PAYLOAD,2023-08-26 18:28:49,15.08845373,0.0001383,53.2193,60.677,73.6751,286.4393,-8.7096e-06,-4.27e-06,0.0,0 STARLINK-4587,1 53635U 22104AZ  23238.77002006 -.00000427  00000-0 -87096-5 0  9991,2 53635  53.2193  60.6770 0001383  73.6751 286.4393 15.08845373 56445,6917.864,95.437,540.686,538.772,0.0
53635.0,STARLINK-4587,PAYLOAD,2023-08-26 23:14:58,15.08849602,0.0001471,53.2181,59.7863,81.9247,278.1912,5.662e-05,6.13e-06,0.0,0 STARLINK-4587,1 53635U 22104AZ  23238.96873376  .00000613  00000-0  56620-4 0  9991,2 53635  53.2181  59.7863 0001471  81.9247 278.1912 15.08849602 55458,6917.851,95.437,540.734,538.698,0.0
53635.0,STARLINK-4587,PAYLOAD,2023-08-27 18:19:36,15.08841369,0.0001793,53.2198,56.2123,85.8526,274.2671,4.3387e-05,4.02e-06,0.0,0 STARLINK-4587,1 53635U 22104AZ  23239.76362021  .00000402  00000-0  43387-4 0  9992,2 53635  53.2198  56.2123 0001793  85.8526 274.2671 15.08841369 55571,6917.876,95.437,540.982,538.501,0.0
53635.0,STARLINK-4587,PAYLOAD,2023-08-27 21:30:23,15.08841039,0.0001752,53.2193,55.6199,85.8154,274.3039,1.6925e-05,-1.9e-07,0.0,0 STARLINK-4587,1 53635U 22104AZ  23239.89610112 -.00000019  00000-0  16925-4 0  9996,2 53635  53.2193  55.6199 0001752  85.8154 274.3039 15.08841039 56613,6917.877,95.437,540.954,538.53,0.0
53635.0,STARLINK-4587,PAYLOAD,2023-08-28 18:10:23,15.08841864,0.0001648,53.2171,51.7574,90.0995,270.0186,2.0513e-05,3.8e-07,0.0,0 STARLINK-4587,1 53635U 22104AZ  23240.75722056  .00000038  00000-0  20513-4 0  9992,2 53635  53.2171  51.7574 0001648  90.0995 270.0186 15.08841864 56744,6917.875,95.437,540.88,538.6,0.0
53635.0,STARLINK-4587,PAYLOAD,2023-08-28 22:56:33,15.08844359,0.0001641,53.2168,50.8649,92.2012,267.9168,4.1196e-05,3.68e-06,0.0,0 STARLINK-4587,1 53635U 22104AZ  23240.95593781  .00000368  00000-0  41196-4 0  9991,2 53635  53.2168  50.8649 0001641  92.2012 267.9168 15.08844359 55757,6917.867,95.437,540.867,538.597,0.0
53635.0,STARLINK-4587,PAYLOAD,2023-08-29 16:25:47,15.08840509,0.0001354,53.2179,47.5946,102.0821,258.0323,-1.3032e-05,-4.95e-06,0.0,0 STARLINK-4587,1 53635U 22104AZ  23241.68458243 -.00000495  00000-0 -13032-4 0  9996,2 53635  53.2179  47.5946 0001354 102.0821 258.0323 15.08840509 55860,6917.879,95.438,540.681,538.807,0.0
53635.0,STARLINK-4587,PAYLOAD,2023-08-30 17:51:57,15.0884252,0.0001313,53.2181,42.8371,90.5778,269.5364,0.00013798,1.909e-05,0.0,0 STARLINK-4587,1 53635U 22104AZ  23242.74441835  .00001909  00000-0  13798-3 0  9990,2 53635  53.2181  42.8371 0001313  90.5778 269.5364 15.08842520 57049,6917.873,95.437,540.646,538.829,0.0
53635.0,STARLINK-4587,PAYLOAD,2023-08-31 19:18:08,15.08835179,0.0001164,53.2174,38.08,76.9312,283.181,5.9924e-05,6.66e-06,0.0,0 STARLINK-4587,1 53635U 22104AZ  23243.80426745  .00000666  00000-0  59924-4 0  9992,2 53635  53.2174  38.0800 0001164  76.9312 283.1810 15.08835179 57209,6917.895,95.438,540.565,538.955,0.0
53635.0,STARLINK-4587,PAYLOAD,2023-09-01 03:15:04,15.08836672,0.0001152,53.2172,36.5933,83.6931,276.4192,6.3716e-05,7.26e-06,0.0,0 STARLINK-4587,1 53635U 22104AZ  23244.13546725  .00000726  00000-0  63716-4 0  9991,2 53635  53.2172  36.5933 0001152  83.6931 276.4192 15.08836672 57258,6917.891,95.438,540.553,538.959,0.0
53635.0,STARLINK-4587,PAYLOAD,2023-09-01 19:08:55,15.08845592,0.0001535,53.219,33.6185,87.9873,272.1295,4.1326e-05,3.7e-06,0.0,0 STARLINK-4587,1 53635U 22104AZ  23244.79786135  .00000370  00000-0  41326-4 0  9992,2 53635  53.2190  33.6185 0001535  87.9873 272.1295 15.08845592 56338,6917.863,95.437,540.79,538.666,0.0
53635.0,STARLINK-4587,PAYLOAD,2023-09-02 03:05:53,15.0879101,0.00015,53.2175,32.1345,113.7213,246.3937,0.00029481,4.401e-05,0.0,0 STARLINK-4587,1 53635U 22104AZ  23245.12909004  .00004401  00000-0  29481-3 0  9998,2 53635  53.2175  32.1345 0001500 113.7213 246.3937 15.08791010 56387,6918.03,95.441,540.933,538.857,0.0
53635.0,STARLINK-4587,PAYLOAD,2023-09-02 15:48:56,15.08838269,0.0001377,53.2149,29.7537,88.9273,271.1877,6.2063e-05,7e-06,0.0,0 STARLINK-4587,1 53635U 22104AZ  23245.65898780  .00000700  00000-0  62063-4 0  9996,2 53635  53.2149  29.7537 0001377  88.9273 271.1877 15.08838269 56460,6917.886,95.438,540.703,538.798,0.0
53635.0,STARLINK-4587,PAYLOAD,2023-09-02 18:59:42,15.08848608,0.000149,53.2182,29.1569,87.6481,272.4682,0.00014349,1.997e-05,0.0,0 STARLINK-4587,1 53635U 22104AZ  23245.79145977  .00001997  00000-0  14349-3 0  9996,2 53635  53.2182  29.1569 0001490  87.6481 272.4682 15.08848608 57501,6917.854,95.437,540.75,538.688,0.0
53635.0,STARLINK-4587,PAYLOAD,2023-09-03 09:18:10,15.08844032,0.0001445,53.2188,26.4816,88.4416,271.6742,5.6738e-05,6.15e-06,0.0,0 STARLINK-4587,1 53635U 22104AZ  23246.38762374  .00000615  00000-0  56738-4 0  9993,2 53635  53.2188  26.4816 0001445  88.4416 271.6742 15.08844032 56570,6917.868,95.437,540.733,538.733,0.0
53635.0,STARLINK-4587,PAYLOAD,2023-09-04 09:08:58,15.08833978,0.0001501,53.2168,22.0238,85.2496,274.8668,5.4552e-06,-2.01e-06,0.0,0 STARLINK-4587,1 53635U 22104AZ  23247.38123026 -.00000201  00000-0  54552-5 0  9994,2 53635  53.2168  22.0238 0001501  85.2496 274.8668 15.08833978 56720,6917.899,95.438,540.802,538.725,0.0
